{
"type": "FeatureCollection",
"name": "limtes_quartiers",
"crs": { "type": "name", "properties": { "name": "urn:ogc:def:crs:EPSG::2056" } },
"features": [
{ "type": "Feature", "properties": { "fid": 1, "Quatier nom": "prélaz" }, "geometry": { "type": "Polygon", "coordinates": [ [ [ 2536336.819654474500567, 1153127.170078038936481 ], [ 2536424.401421001646668, 1153450.657570534851402 ], [ 2536790.26718762377277, 1153281.144474030472338 ], [ 2536952.717238440178335, 1153097.505286150611937 ], [ 2536879.261563288513571, 1152906.803052583243698 ], [ 2536336.819654474500567, 1153127.170078038936481 ] ] ] } },
{ "type": "Feature", "properties": { "fid": 2, "Quatier nom": "Pontaise" }, "geometry": { "type": "Polygon", "coordinates": [ [ [ 2537898.905469688586891, 1153797.718390779104084 ], [ 2537679.31383342249319, 1153434.256372132105753 ], [ 2537758.82115000160411, 1153347.176930164452642 ], [ 2537709.602334976196289, 1153218.450798560399562 ], [ 2537925.40790854813531, 1153082.152541567571461 ], [ 2538031.417663986794651, 1152942.068221880821511 ], [ 2538141.21348211960867, 1152870.133030690252781 ], [ 2538258.581425641197711, 1152991.287036905763671 ], [ 2538198.004422533325851, 1153199.520485089160502 ], [ 2538073.064353623427451, 1153551.624315653461963 ], [ 2537898.905469688586891, 1153797.718390779104084 ] ] ] } }
]
}
